ALOS (DAICHI)           
1 28931U 06002A   26071.29407543  .00001805  00000+0  31044-3 0  9999
2 28931  98.1220  27.2364 0000841  61.0446 299.0844 14.69820577 73864
H-2A R/B                
1 28932U 06002B   26071.31455198  .00010707  00000+0  53493-3 0  9995
2 28932  98.2411 218.5640 0051932 231.9791 127.6746 15.16483920 94835
RESURS-DK 1             
1 29228U 06021A   26071.18040981  .00003892  00000+0  22745-3 0  9993
2 29228  69.9325 230.5792 0001644 160.8628 199.2600 15.12764715 87903
CZ-4B R/B               
1 29507U 06046C   26071.11588416  .00004686  00000+0  23816-3 0  9995
2 29507  97.5596 116.0188 0031679 258.4841 101.2834 15.16932678 60417
CZ-2C R/B               
1 31114U 07010B   26071.26209868  .00000171  00000+0  97995-4 0  9996
2 31114  98.3979 184.4117 0057871 286.9714  72.5126 14.20247341980084
COSMO-SKYMED 1          
1 31598U 07023A   26071.27208691  .00004403  00000+0  39215-3 0  9992
2 31598  97.8879 262.3244 0001481  97.9849 262.1540 14.96558699 15298
COSMOS 2428             
1 31792U 07029A   26071.29572732  .00000032  00000+0  42639-4 0  9995
2 31792  70.9436 197.8732 0009213 274.4850  85.5219 14.12946675964469
SL-16 R/B               
1 31793U 07029B   26071.32021113  .00000155  00000+0  10490-3 0  9997
2 31793  70.9758 166.8558 0002266 275.9418 141.1099 14.14834186965748
KORONAS-FOTON           
1 33504U 09003A   26071.03357247  .00009856  00000+0  21956-3 0  9997
2 33504  82.4278 273.4409 0011397 141.8970 218.3085 15.43371632946100
CZ-2C R/B               
1 37731U 11030B   26071.33293460  .00002127  00000+0  27363-3 0  9997
2 37731  97.8542  28.5429 0052151 343.4508 178.4248 14.81234954790482
H-2A R/B                
1 38341U 12025E   26070.87009374  .00003519  00000+0  32069-3 0  9992
2 38341  98.4739  38.0911 0043203 307.1184  52.6090 14.95189354748548
SHIJIAN-16 (SJ-16)      
1 39358U 13057A   26071.31058192  .00003049  00000+0  30013-3 0  9994
2 39358  74.9729 180.1267 0015453 105.6502 254.6393 14.92361141671895
SL-4 R/B                
1 39679U 14021B   26070.96624170  .00015383  00000+0  33848-3 0  9990
2 39679  51.6083 326.1718 0097301 111.2955 249.8451 15.39266038656622
ALOS-2                  
1 39766U 14029A   26071.28880078  .00003168  00000+0  43048-3 0  9993
2 39766  97.9185 169.8479 0001471  96.9587 263.1792 14.79517919637259
YAOGAN-29               
1 41038U 15069A   26071.29094569  .00000683  00000+0  90768-4 0  9997
2 41038  98.0144  99.7277 0001720  31.5860 328.5456 14.82998618556261
ASTRO-H (HITOMI)        
1 41337U 16012A   26070.94768426  .00003441  00000+0  20065-3 0  9996
2 41337  31.0006 341.9769 0009757 353.9535   6.0985 15.10023348552579
